49P/Arend-Rigaux,e,19.0597,118.7905,332.9289,3.569046,0.1461759,0.59892562,42.3042,01/25.0/2026,2000,g 11.3,4.4
# From MPEC 2025-W75
50P/Arend,e,19.1006,355.1445,49.3025,4.085710,0.1193446,0.52955024,74.2899,01/25.0/2026,2000,g  9.5,6.0
# From MPEC 2025-W75
51P/Harrington,e,5.4263,83.6580,269.2159,3.705387,0.1381827,0.54266701,167.5806,01/25.0/2026,2000,g 10.0,8.0
# From NK 3014
51P-A/Harrington,e,5.4261,269.2268,83.6270,3.706617,0.1381140,0.54286260,167.1406,01/25.0/2026,2000,g 10.0,8.0
# From MPEC 2025-W75
52P/Harrington-Abell,e,10.2408,336.7418,139.6439,3.861733,0.1298766,0.54120731,204.0624,01/25.0/2026,2000,g 13.5,6.0
# From MPEC 2025-W75
53P/VanBiesbroeck,e,6.6047,148.8489,134.3261,5.440546,0.0776677,0.55010429,277.2588,01/25.0/2026,2000,g  7.7,4.8
# From MPEC 2025-W75
54P/deVico-Swift-NEAT,e,6.0728,358.4279,2.3998,3.795465,0.1332928,0.42871932,67.6005,01/25.0/2026,2000,g 10.0,6.0
# From MPEC 2025-W75
55P/Tempel-Tuttle,e,162.4936,235.4100,172.5336,10.33393,0.0296692,0.90532829,302.2787,01/25.0/2026,2000,g 10.0,10.0
# From MPEC 2025-W75
56P/Slaughter-Burnham,e,8.1552,345.8707,44.2369,5.062786,0.0865206,0.50816798,299.9853,01/25.0/2026,2000,g  8.5,6.0
# From MPEC 2025-W75
57P/duToit-Neujmin-Delporte,e,2.8553,188.6970,115.1044,3.439731,0.1544961,0.50197562,241.1986,01/25.0/2026,2000,g 12.5,6.0
# From MPEC 2025-W75
58P/Jackson-Neujmin,e,13.0836,159.0270,200.5785,4.091838,0.1190766,0.66138268,246.4950,01/25.0/2026,2000,g 15.5,6.0
# From MPEC 2025-W75
59P/Kearns-Kwee,e,9.3574,312.7263,127.6992,4.478057,0.1040087,0.47701165,278.8089,01/25.0/2026,2000,g  7.0,6.0
# From MPEC 2025-W75
60P/Tsuchinshan,e,3.5798,267.3955,216.9147,3.529252,0.1486552,0.53367958,28.0058,01/25.0/2026,2000,g 11.5,6.0
# From MPEC 2025-W75
61P/Shajn-Schaldach,e,5.9956,162.9552,221.7183,3.691289,0.1389751,0.42277374,165.3769,01/25.0/2026,2000,g  6.0,10.0
# From MPEC 2025-W75
62P/Tsuchinshan,e,4.7361,68.6613,47.3492,3.371569,0.1592048,0.62473334,121.2665,01/25.0/2026,2000,g  8.0,10.0
# From MPEC 2026-A90
63P/Wild,e,19.6167,357.7505,168.7352,5.657650,0.0732403,0.65094735,348.1243,01/25.0/2026,2000,g 10.5,6.0
# From MPEC 2025-W75
64P/Swift-Gehrels,e,8.9548,299.7621,97.3411,4.452328,0.1049116,0.68823079,276.4618,01/25.0/2026,2000,g  9.5,12.0
# From MPEC 2025-X35
65P/Gunn,e,9.1749,61.9706,213.6439,3.891522,0.1283881,0.24808230,28.5901,01/25.0/2026,2000,g  5.0,6.0
# From MPEC 2025-W75
66P/duToit,e,18.6466,21.8574,257.3407,6.070503,0.0658972,0.78492906,185.5859,01/25.0/2026,2000,g 12.0,3.6
# From MPEC 2025-W75
67P/Churyumov-Gerasimenko,e,3.8671,36.3014,22.2290,3.458774,0.1532219,0.64967933,236.5990,01/25.0/2026,2000,g 11.0,4.0
# From MPEC 2025-W75
68P/Klemola,e,11.0967,175.0975,153.1919,4.964301,0.0891081,0.63561203,202.5640,01/25.0/2026,2000,g 10.0,4.0
# From MPEC 2025-W75
69P/Taylor,e,22.0612,104.8068,343.5379,3.879144,0.1290031,0.41467020,322.4034,01/25.0/2026,2000,g  9.5,12.0
# From MPEC 2025-W75
70P/Kojima,e,6.6037,119.2362,1.8126,3.674913,0.1399051,0.45493884,215.7689,01/25.0/2026,2000,g 11.0,6.0
# From MPEC 2025-W75
71P/Clark,e,9.1991,58.9240,210.8051,3.185173,0.1733822,0.48238522,191.3229,01/25.0/2026,2000,g  9.8,6.0
# From MPEC 2025-W75
72P/Denning-Fujikawa,e,10.9399,26.7328,346.7358,4.307642,0.1102414,0.81815437,105.2411,01/25.0/2026,2000,g 17.5,10.0
# From MPEC 2025-W75
73P/Schwassmann-Wachmann,e,6.3120,53.4094,213.6791,3.053879,0.1846827,0.70469435,231.6656,01/25.0/2026,2000,g 11.5,6.0
# From MPC106348
73P-BT/Schwassmann-Wachmann,e,10.6068,189.9311,78.2670,3.080024,0.1823362,0.69292727,227.5060,01/25.0/2026,2000,g 11.5,6.0
# From MPEC 2026-A24
74P/Smirnova-Chernykh,e,5.9437,50.8973,58.3032,5.143587,0.0844899,0.05957646,356.0202,01/25.0/2026,2000,g  5.0,6.0
# From MPEC 2025-WD0
76P/West-Kohoutek-Ikemura,e,30.4983,84.1088,0.0245,3.466994,0.1526773,0.53943024,347.9929,01/25.0/2026,2000,g  8.0,12.0
# From MPEC 2025-W75
77P/Longmore,e,24.3310,14.7475,196.5914,3.619495,0.1431305,0.35204478,147.1449,01/25.0/2026,2000,g  7.0,8.0
# From MPEC 2026-A24
78P/Gehrels,e,6.2574,210.4955,192.7863,3.732495,0.1366801,0.46294978,339.3504,01/25.0/2026,2000,g  5.5,8.0
# From MPEC 2025-W75
79P/duToit-Hartley,e,3.1489,280.4860,281.7637,2.942040,0.1953130,0.61955970,165.5406,01/25.0/2026,2000,g 16.0,4.0
# From MPEC 2025-W75
80P/Peters-Hartley,e,29.9288,259.7697,339.2501,4.020897,0.1222418,0.59770629,139.8574,01/25.0/2026,2000,g  9.0,8.0
# From MPEC 2025-W75
81P/Wild,e,3.2388,136.1059,41.5447,3.450992,0.1537404,0.53790371,174.6264,01/25.0/2026,2000,g  7.0,6.0
# From MPEC 2025-W75
82P/Gehrels,e,1.1294,239.2903,226.3444,4.133590,0.1172770,0.12324647,325.4664,01/25.0/2026,2000,g  5.0,8.0
# From MPEC 2025-W75
84P/Giclas,e,7.5529,108.0797,281.7427,3.550023,0.1473525,0.51558359,303.4624,01/25.0/2026,2000,g  9.5,8.0
# From MPEC 2025-W75
86P/Wild,e,15.4660,72.0806,180.9737,3.654080,0.1411032,0.36009164,205.7615,01/25.0/2026,2000,g 11.0,6.0
# From MPEC 2025-WD0
87P/Bus,e,3.8601,175.7020,63.8260,4.460517,0.1046228,0.19671475,228.8392,01/25.0/2026,2000,g  7.2,10.0
# From MPEC 2025-W75
88P/Howell,e,4.3819,56.6695,235.8680,3.109077,0.1797864,0.56328031,350.5120,01/25.0/2026,2000,g 11.0,6.0
# From MPEC 2025-W75
89P/Russell,e,12.0674,41.3404,250.4722,3.751738,0.1356299,0.40713051,90.8077,01/25.0/2026,2000,g 11.5,6.0
# From MPEC 2025-W75
90P/Gehrels,e,9.6338,13.1491,29.2327,6.055524,0.0661419,0.51024088,207.5194,01/25.0/2026,2000,g  8.5,6.0
# From MPEC 2025-WD0
91P/Russell,e,15.9651,241.9893,356.8834,4.161011,0.1161197,0.25171195,243.3379,01/25.0/2026,2000,g  7.5,6.0
# From MPEC 2025-W75
92P/Sanguin,e,19.4778,181.3349,163.7821,5.345765,0.0797424,0.65992240,317.2203,01/25.0/2026,2000,g 12.0,6.0
# From MPEC 2026-A24
93P/Lovas,e,12.2106,339.5494,75.0417,4.372377,0.1078022,0.61384613,349.4413,01/25.0/2026,2000,g  9.5,6.0
# From MPEC 2025-W75
94P/Russell,e,6.1871,70.8388,92.3831,3.509639,0.1499030,0.36620732,146.8387,01/25.0/2026,2000,g  9.0,6.0
# From MPEC 2025-W75
96P/Machholz,e,57.5807,93.9607,14.7408,3.031007,0.1867771,0.96172916,203.4833,01/25.0/2026,2000,g 13.0,4.8
# From MPC106348
96P-B/Machholz,e,57.5088,14.5076,94.0605,3.029978,0.1868723,0.96175030,203.6412,01/25.0/2026,2000,g 13.0,4.8
# From MPEC 2025-W75
97P/Metcalf-Brewington,e,17.9323,184.0646,230.2348,4.771280,0.0945696,0.45964244,136.1122,01/25.0/2026,2000,g  5.5,6.0
# From MPEC 2025-W75
98P/Takamizawa,e,10.8712,114.4584,158.2658,3.749272,0.1357637,0.58098848,247.8720,01/25.0/2026,2000,g  9.0,8.0
# From MPEC 2025-W75
99P/Kowal,e,4.3394,28.0489,174.5081,6.092917,0.0655339,0.22897971,90.8948,01/25.0/2026,2000,g  4.5,6.0
# From MPEC 2025-W75
100P/Hartley,e,25.5683,37.6859,181.8950,3.430211,0.1551397,0.41140250,196.1276,01/25.0/2026,2000,g  9.0,8.0
# From MPEC 2025-W75
101P/Chernykh,e,5.0485,116.1129,278.0094,5.819173,0.0702121,0.59518495,154.7928,01/25.0/2026,2000,g 10.0,4.8
# From MPEC 2025-W75
102P/Shoemaker,e,25.8452,339.3463,20.7018,3.820968,0.1319605,0.45576261,241.5280,01/25.0/2026,2000,g  6.5,8.0
# From MPEC 2025-W75
103P/Hartley,e,13.6040,219.7618,181.3343,3.476183,0.1520723,0.69329786,127.0877,01/25.0/2026,2000,g  8.5,8.0
# From MPEC 2025-W75
104P/Kowal,e,5.6999,207.1632,227.3318,3.208504,0.1714945,0.66583129,252.6558,01/25.0/2026,2000,g 16.0,4.0
# From MPEC 2025-W75
105P/SingerBrewster,e,9.1681,192.3868,46.3130,3.472612,0.1523069,0.40917340,55.9410,01/25.0/2026,2000,g 11.5,6.0
# From MPEC 2025-W75
106P/Schuster,e,19.5276,48.8654,353.8009,3.768810,0.1347094,0.59328710,218.2346,01/25.0/2026,2000,g 14.0,4.8
# From MPEC 2025-W75
108P/Ciffreo,e,11.4309,50.2732,354.5647,3.744383,0.1360297,0.55543494,217.3365,01/25.0/2026,2000,g  8.0,12.0
# From MPEC 2025-W75
109P/Swift-Tuttle,e,112.9262,139.8392,153.2443,26.19045,0.0073534,0.96316163,88.8919,01/25.0/2026,2000,g  4.5,6.0
# From MPEC 2025-W75
110P/Hartley,e,11.7118,287.4818,167.5916,3.603312,0.1440958,0.31924552,224.4822,01/25.0/2026,2000,g  1.0,12.0
# From MPEC 2025-WD0
111P/Helin-Roman-Crockett,e,4.2262,89.7330,1.5940,4.153108,0.1164513,0.10713291,195.5592,01/25.0/2026,2000,g  5.0,8.0
# From MPEC 2025-WD0
112P/Urata-Niijima,e,24.2033,31.7985,21.5758,3.521686,0.1491345,0.59076528,324.2305,01/25.0/2026,2000,g 14.0,6.0
# From MPEC 2025-W75
113P/Spitaler,e,5.2879,306.6115,115.7651,3.696760,0.1386667,0.41943787,184.8793,01/25.0/2026,2000,g 13.5,4.0
# From MPEC 2025-W75
114P/Wiseman-Skiff,e,18.3034,271.0236,172.8378,3.538853,0.1480506,0.55611987,325.5066,01/25.0/2026,2000,g 11.5,6.0
# From MPEC 2025-W75
115P/Maury,e,11.6958,175.9073,120.9530,4.269622,0.1117172,0.51873481,224.4026,01/25.0/2026,2000,g 10.5,6.0
# From MPEC 2025-W75
116P/Wild,e,3.6051,20.9584,173.1496,3.485164,0.1514849,0.37101772,195.1049,01/25.0/2026,2000,g  2.5,10.0
# From MPEC 2026-A24
117P/Helin-Roman-Alu,e,8.6547,58.7632,224.9838,4.126346,0.1175860,0.25009381,152.3070,01/25.0/2026,2000,g  2.5,8.0
# From MPEC 2025-W75
118P/Shoemaker-Levy,e,10.0931,142.0442,314.9797,3.349112,0.1608087,0.45377705,186.0633,01/25.0/2026,2000,g 12.0,4.0
# From MPEC 2025-W75
119P/Parker-Hartley,e,7.3929,104.5408,322.3023,3.810460,0.1325067,0.38789159,167.1771,01/25.0/2026,2000,g  3.5,8.0
# From MPEC 2025-W75
120P/Mueller,e,8.4787,358.6420,36.8482,3.970771,0.1245638,0.37384541,214.7295,01/25.0/2026,2000,g 12.0,4.0
# From MPEC 2025-W75
121P/Shoemaker-Holt,e,20.1620,94.1051,12.0786,4.591012,0.1001940,0.18666677,94.0450,01/25.0/2026,2000,g  6.5,8.0
# From MPEC 2025-W75
122P/deVico,e,85.9706,79.7306,13.0111,17.63581,0.0133079,0.96265477,147.2727,01/25.0/2026,2000,g  7.5,5.2
# From MPEC 2026-A90
123P/West-Hartley,e,15.2850,45.8774,103.9106,3.886686,0.1286278,0.44470063,329.1245,01/25.0/2026,2000,g  4.0,10.0
# From MPEC 2026-A90
124P/Mrkos,e,31.4032,359.9515,185.1132,3.377856,0.1587605,0.48637162,336.2512,01/25.0/2026,2000,g 13.5,2.8
# From MPEC 2025-W75
125P/Spacewatch,e,9.9861,153.1522,87.0832,3.127182,0.1782274,0.51200888,122.7704,01/25.0/2026,2000,g 13.0,6.0
# From MPEC 2025-W75
126P/IRAS,e,45.8729,357.8556,356.5447,5.625031,0.0738783,0.69584302,69.0934,01/25.0/2026,2000,g  6.0,8.0
# From MPEC 2025-W75
